IRIDIUM 136             
1 42962U 17061H   23348.68128210  .00000236  00000+0  77318-4 0  9996
2 42962  86.3977  47.8435 0002172 101.5465 258.5974 14.34217634323610
